OBJECT A                
1 44879U 19093A   20134.07210921  .00000114  00000-0  21404-4 0  9997
2 44879  97.9586 210.3420 0015734 147.7805 212.4370 14.81394383 21468
OBJECT B                
1 44880U 19093B   20134.07165459  .00000157  00000-0  26873-4 0  9996
2 44880  97.9588 210.3453 0016007 148.3935 211.8240 14.81407241 21459
OBJECT C                
1 44881U 19093C   20134.06818249 -.00000387  00000-0 -42559-4 0  9994
2 44881  97.9582 210.3566 0015094 147.1047 213.1097 14.81427640 21455
OBJECT D                
1 44882U 19093D   20134.06462928  .00000226  00000-0  35635-4 0  9991
2 44882  97.9620 210.4182 0016971 149.8057 210.4138 14.81488146 21453
CBERS 4A                
1 44883U 19093E   20134.05873495  .00000094  00000-0  18680-4 0  9990
2 44883  97.9590 210.3748 0001405  77.8118 282.3253 14.81516371 21460
OBJECT F                
1 44884U 19093F   20134.03305969  .00000205  00000-0  32650-4 0  9992
2 44884  97.9561 210.3580 0014239 154.3376 205.8550 14.81808319 21454
FLORIPASAT-1            
1 44885U 19093G   20134.08064040  .00000244  00000-0  37428-4 0  9991
2 44885  97.9581 210.4813 0015080 157.6014 202.5855 14.82017106 21467
OBJECT H                
1 44886U 19093H   20134.04549471  .00000155  00000-0  26084-4 0  9991
2 44886  97.9597 210.5559 0015542 163.5810 196.5915 14.82364511 21460
OBJECT J                
1 44887U 19093J   20134.04610264  .00000127  00000-0  22572-4 0  9998
2 44887  97.9592 210.5476 0015421 163.3716 196.8011 14.82355736 21462
CZ-4B R/B               
1 44888U 19093K   20133.81992969  .00000697  00000-0  39147-4 0  9996
2 44888  97.8649 215.0713 0122736 247.8169 110.9996 15.11029695 21854
OBJECT L                
1 44889U 19093L   20134.13371529  .00000101  00000-0  19958-4 0  9994
2 44889  97.9549 210.2085 0016724 139.3527 220.8958 14.80771939 21383
OBJECT M                
1 44890U 19093M   20134.00545359  .00000451  00000-0  57542-4 0  9995
2 44890  97.9072 210.3114 0049031 172.1851 188.0124 14.85563816 21425
OBJECT N                
1 44891U 19093N   20134.07689158  .00000322  00000-0  43046-4 0  9990
2 44891  98.0163 212.4621 0023565 276.2338  83.6181 14.86210531 21444
